{"type": "FeatureCollection", "features": [ {"type": "Feature", "properties": {"norad_id": 41831, "name": "FENGYUN 1C DEB", "group": "fengyun-1c-debris", "lat": -78.75151009316005, "lon": 96.5114406776424, "alt_km": 784.1358934977106, "timestamp": "2025-12-04T23:34:06.013043+00:00", "meta": {"OBJECT_NAME": "FENGYUN 1C DEB", "OBJECT_ID": "1999-025EYJ", "EPOCH": "2025-12-04T03:43:35.205312", "MEAN_MOTION": 14.24465623, "ECCENTRICITY": 0.00557942, "INCLINATION": 98.7354, "RA_OF_ASC_NODE": 45.059, "ARG_OF_PERICENTER": 245.7918, "MEAN_ANOMALY": 113.7423, "EPHEMERIS_TYPE": 0, "CLASSIFICATION_TYPE": "U", "NORAD_CAT_ID": 41831, "ELEMENT_SET_NO": 999, "REV_AT_EPOCH": 47137, "BSTAR": 0.0033414349, "MEAN_MOTION_DOT": 7.83e-05, "MEAN_MOTION_DDOT": 0}, "tle": {"line1": "1 41831U 99025EYJ 25338.15526858  .00007830  00000+0  33414-2 0  9997", "line2": "2 41831  98.7354  45.0590 0055794 245.7918 113.7423 14.24465623471374"}}, "geometry": {"type": "Point", "coordinates": [96.5114406776424, -78.75151009316005]}}, {"type": "Feature", "properties": {"norad_id": 41832, "name": "FENGYUN 1C DEB", "group": "fengyun-1c-debris", "lat": -18.579796950625735, "lon": 46.01903509979404, "alt_km": 818.4545188548682, "timestamp": "2025-12-04T23:34:06.013053+00:00", "meta": {"OBJECT_NAME": "FENGYUN 1C DEB", "OBJECT_ID": "1999-025EYK", "EPOCH": "2025-12-04T03:25:20.787744", "MEAN_MOTION": 14.24134445, "ECCENTRICITY": 0.00550737, "INCLINATION": 98.7308, "RA_OF_ASC_NODE": 42.2244, "ARG_OF_PERICENTER": 250.3845, "MEAN_ANOMALY": 109.1384, "EPHEMERIS_TYPE": 0, "CLASSIFICATION_TYPE": "U", "NORAD_CAT_ID": 41832, "ELEMENT_SET_NO": 999, "REV_AT_EPOCH": 47228, "BSTAR": 0.0032923373, "MEAN_MOTION_DOT": 7.661e-05, "MEAN_MOTION_DDOT": 0}, "tle": {"line1": "1 41832U 99025EYK 25338.14260171  .00007661  00000+0  32923-2 0  9996", "line2": "2 41832  98.7308  42.2244 0055073 250.3845 109.1384 14.24134445472281"}}, "geometry": {"type": "Point", "coordinates": [46.01903509979404, -18.579796950625735]}}, {"type": "Feature", "properties": {"norad_id": 41833, "name": "FENGYUN 1C DEB", "group": "fengyun-1c-debris", "lat": 35.3628202926524, "lon": -125.16232306147269, "alt_km": 811.0606091695945, "timestamp": "2025-12-04T23:34:06.013063+00:00", "meta": {"OBJECT_NAME": "FENGYUN 1C DEB", "OBJECT_ID": "1999-025EYL", "EPOCH": "2025-12-04T16:09:07.459200", "MEAN_MOTION": 14.25706918, "ECCENTRICITY": 0.0053802, "INCLINATION": 98.7488, "RA_OF_ASC_NODE": 48.2552, "ARG_OF_PERICENTER": 246.2946, "MEAN_ANOMALY": 113.2583, "EPHEMERIS_TYPE": 0, "CLASSIFICATION_TYPE": "U", "NORAD_CAT_ID": 41833, "ELEMENT_SET_NO": 999, "REV_AT_EPOCH": 47249, "BSTAR": 0.003725, "MEAN_MOTION_DOT": 8.939e-05, "MEAN_MOTION_DDOT": 0}, "tle": {"line1": "1 41833U 99025EYL 25338.67300300  .00008939  00000+0  37250-2 0  9991", "line2": "2 41833  98.7488  48.2552 0053802 246.2946 113.2583 14.25706918472494"}}, "geometry": {"type": "Point", "coordinates": [-125.16232306147269, 35.3628202926524]}}, {"type": "Feature", "properties": {"norad_id": 43213, "name": "FENGYUN 1C DEB", "group": "fengyun-1c-debris", "lat": 42.19450783611544, "lon": 35.421499913620366, "alt_km": 843.8997317457815, "timestamp": "2025-12-04T23:34:06.013073+00:00", "meta": {"OBJECT_NAME": "FENGYUN 1C DEB", "OBJECT_ID": "1999-025EYM", "EPOCH": "2025-12-03T03:30:49.973472", "MEAN_MOTION": 14.23745393, "ECCENTRICITY": 0.00540559, "INCLINATION": 98.7343, "RA_OF_ASC_NODE": 41.6102, "ARG_OF_PERICENTER": 254.7571, "MEAN_ANOMALY": 104.7627, "EPHEMERIS_TYPE": 0, "CLASSIFICATION_TYPE": "U", "NORAD_CAT_ID": 43213, "ELEMENT_SET_NO": 999, "REV_AT_EPOCH": 40236, "BSTAR": 0.0020431704, "MEAN_MOTION_DOT": 4.697e-05, "MEAN_MOTION_DDOT": 0}, "tle": {"line1": "1 43213U 99025EYM 25337.14641173  .00004697  00000+0  20432-2 0  9993", "line2": "2 43213  98.7343  41.6102 0054055 254.7571 104.7627 14.23745393402366"}}, "geometry": {"type": "Point", "coordinates": [35.421499913620366, 42.19450783611544]}}, {"type": "Feature", "properties": {"norad_id": 43214, "name": "FENGYUN 1C DEB", "group": "fengyun-1c-debris", "lat": -38.48509791487892, "lon": 50.762995160643634, "alt_km": 805.695829736912, "timestamp": "2025-12-04T23:34:06.013083+00:00", "meta": {"OBJECT_NAME": "FENGYUN 1C DEB", "OBJECT_ID": "1999-025EYN", "EPOCH": "2025-12-04T03:30:56.209824", "MEAN_MOTION": 14.24032303, "ECCENTRICITY": 0.00549129, "INCLINATION": 98.7368, "RA_OF_ASC_NODE": 42.9105, "ARG_OF_PERICENTER": 251.5013, "MEAN_ANOMALY": 108.0193, "EPHEMERIS_TYPE": 0, "CLASSIFICATION_TYPE": "U", "NORAD_CAT_ID": 43214, "ELEMENT_SET_NO": 999, "REV_AT_EPOCH": 40281, "BSTAR": 0.0032126966, "MEAN_MOTION_DOT": 7.459e-05, "MEAN_MOTION_DDOT": 0}, "tle": {"line1": "1 43214U 99025EYN 25338.14648391  .00007459  00000+0  32127-2 0  9997", "line2": "2 43214  98.7368  42.9105 0054912 251.5013 108.0193 14.24032303402815"}}, "geometry": {"type": "Point", "coordinates": [50.762995160643634, -38.48509791487892]}}, {"type": "Feature", "properties": {"norad_id": 43358, "name": "FENGYUN 1C DEB", "group": "fengyun-1c-debris", "lat": -54.41580688770858, "lon": -92.24992243366616, "alt_km": 846.5745031197912, "timestamp": "2025-12-04T23:34:06.013093+00:00", "meta": {"OBJECT_NAME": "FENGYUN 1C DEB", "OBJECT_ID": "1999-025EYP", "EPOCH": "2025-12-04T06:15:49.849632", "MEAN_MOTION": 13.40320131, "ECCENTRICITY": 0.036748, "INCLINATION": 98.6876, "RA_OF_ASC_NODE": 99.4679, "ARG_OF_PERICENTER": 223.9716, "MEAN_ANOMALY": 133.1635, "EPHEMERIS_TYPE": 0, "CLASSIFICATION_TYPE": "U", "NORAD_CAT_ID": 43358, "ELEMENT_SET_NO": 999, "REV_AT_EPOCH": 53617, "BSTAR": 0.0045811, "MEAN_MOTION_DOT": 3.685e-05, "MEAN_MOTION_DDOT": 0}, "tle": {"line1": "1 43358U 99025EYP 25338.26099363  .00003685  00000+0  45811-2 0  9999", "line2": "2 43358  98.6876  99.4679 0367480 223.9716 133.1635 13.40320131536173"}}, "geometry": {"type": "Point", "coordinates": [-92.24992243366616, -54.41580688770858]}}, {"type": "Feature", "properties": {"norad_id": 43359, "name": "FENGYUN 1C DEB", "group": "fengyun-1c-debris", "lat": -66.15975158891686, "lon": -142.4020103278946, "alt_km": 868.4349520863716, "timestamp": "2025-12-04T23:34:06.013103+00:00", "meta": {"OBJECT_NAME": "FENGYUN 1C DEB", "OBJECT_ID": "1999-025EYQ", "EPOCH": "2025-12-03T04:13:15.477312", "MEAN_MOTION": 14.23022125, "ECCENTRICITY": 0.00741146, "INCLINATION": 99.054, "RA_OF_ASC_NODE": 56.8934, "ARG_OF_PERICENTER": 43.17, "MEAN_ANOMALY": 317.5255, "EPHEMERIS_TYPE": 0, "CLASSIFICATION_TYPE": "U", "NORAD_CAT_ID": 43359, "ELEMENT_SET_NO": 999, "REV_AT_EPOCH": 47613, "BSTAR": 0.0025639007, "MEAN_MOTION_DOT": 5.9e-05, "MEAN_MOTION_DDOT": 0}, "tle": {"line1": "1 43359U 99025EYQ 25337.17587358  .00005900  00000+0  25639-2 0  9993", "line2": "2 43359  99.0540  56.8934 0074114  43.1700 317.5255 14.23022125476131"}}, "geometry": {"type": "Point", "coordinates": [-142.4020103278946, -66.15975158891686]}}, {"type": "Feature", "properties": {"norad_id": 45526, "name": "FENGYUN 1C DEB", "group": "fengyun-1c-debris", "lat": -74.49918685993705, "lon": 84.94015453472743, "alt_km": 782.5394596456154, "timestamp": "2025-12-04T23:34:06.013113+00:00", "meta": {"OBJECT_NAME": "FENGYUN 1C DEB", "OBJECT_ID": "1999-025EYR", "EPOCH": "2025-12-03T04:08:22.721280", "MEAN_MOTION": 14.25804851, "ECCENTRICITY": 0.00538527, "INCLINATION": 98.7653, "RA_OF_ASC_NODE": 49.33, "ARG_OF_PERICENTER": 249.8754, "MEAN_ANOMALY": 109.6626, "EPHEMERIS_TYPE": 0, "CLASSIFICATION_TYPE": "U", "NORAD_CAT_ID": 45526, "ELEMENT_SET_NO": 999, "REV_AT_EPOCH": 43240, "BSTAR": 0.0024328402, "MEAN_MOTION_DOT": 5.831e-05, "MEAN_MOTION_DDOT": 0}, "tle": {"line1": "1 45526U 99025EYR 25337.17248520  .00005831  00000+0  24328-2 0  9993", "line2": "2 45526  98.7653  49.3300 0053852 249.8754 109.6626 14.25804851432404"}}, "geometry": {"type": "Point", "coordinates": [84.94015453472743, -74.49918685993705]}}, {"type": "Feature", "properties": {"norad_id": 45527, "name": "FENGYUN 1C DEB", "group": "fengyun-1c-debris", "lat": -30.198907052713828, "lon": 50.78179639060149, "alt_km": 810.5112442770014, "timestamp": "2025-12-04T23:34:06.013123+00:00", "meta": {"OBJECT_NAME": "FENGYUN 1C DEB", "OBJECT_ID": "1999-025EYS", "EPOCH": "2025-12-03T03:52:44.018112", "MEAN_MOTION": 14.24385911, "ECCENTRICITY": 0.00544277, "INCLINATION": 98.7404, "RA_OF_ASC_NODE": 43.8343, "ARG_OF_PERICENTER": 253.1442, "MEAN_ANOMALY": 106.3763, "EPHEMERIS_TYPE": 0, "CLASSIFICATION_TYPE": "U", "NORAD_CAT_ID": 45527, "ELEMENT_SET_NO": 999, "REV_AT_EPOCH": 39443, "BSTAR": 0.0021614985, "MEAN_MOTION_DOT": 5.035e-05, "MEAN_MOTION_DDOT": 0}, "tle": {"line1": "1 45527U 99025EYS 25337.16162058  .00005035  00000+0  21615-2 0  9996", "line2": "2 45527  98.7404  43.8343 0054427 253.1442 106.3763 14.24385911394432"}}, "geometry": {"type": "Point", "coordinates": [50.78179639060149, -30.198907052713828]}}, {"type": "Feature", "properties": {"norad_id": 46440, "name": "FENGYUN 1C DEB", "group": "fengyun-1c-debris", "lat": 75.88444704177978, "lon": -30.778220513168137, "alt_km": 790.3970195095026, "timestamp": "2025-12-04T23:34:06.013134+00:00", "meta": {"OBJECT_NAME": "FENGYUN 1C DEB", "OBJECT_ID": "1999-025EYV", "EPOCH": "2025-11-30T21:42:54.078912", "MEAN_MOTION": 14.20290607, "ECCENTRICITY": 0.0175806, "INCLINATION": 98.5947, "RA_OF_ASC_NODE": 2.2289, "ARG_OF_PERICENTER": 169.3708, "MEAN_ANOMALY": 316.1091, "EPHEMERIS_TYPE": 0, "CLASSIFICATION_TYPE": "U", "NORAD_CAT_ID": 46440, "ELEMENT_SET_NO": 999, "REV_AT_EPOCH": 62201, "BSTAR": 0.00034066806, "MEAN_MOTION_DOT": 8.08e-06, "MEAN_MOTION_DDOT": 0}, "tle": {"line1": "1 46440U 99025EYV 25334.90479258  .00000808  00000+0  34067-3 0  9992", "line2": "2 46440  98.5947   2.2289 0175806 169.3708 316.1091 14.20290607622019"}}, "geometry": {"type": "Point", "coordinates": [-30.778220513168137, 75.88444704177978]}}]}